[{"OBJECT_NAME":"GAOFEN-9 05","OBJECT_ID":"2020-058A","EPOCH":"2026-03-10T00:01:50.876256","MEAN_MOTION":15.30293976,"ECCENTRICITY":0.0010522,"INCLINATION":97.2228,"RA_OF_ASC_NODE":111.963,"ARG_OF_PERICENTER":91.0204,"MEAN_ANOMALY":269.2242,"EPHEMERIS_TYPE":0,"CLASSIFICATION_TYPE":"U","NORAD_CAT_ID":46232,"ELEMENT_SET_NO":999,"REV_AT_EPOCH":30843,"BSTAR":0.00025120304,"MEAN_MOTION_DOT":7.299e-5,"MEAN_MOTION_DDOT":0},{"OBJECT_NAME":"STARLINK-34820","OBJECT_ID":"2025-161AC","EPOCH":"2026-03-09T21:38:10.196160","MEAN_MOTION":15.30200105,"ECCENTRICITY":9.289e-5,"INCLINATION":53.1577,"RA_OF_ASC_NODE":293.1186,"ARG_OF_PERICENTER":62.7884,"MEAN_ANOMALY":297.3211,"EPHEMERIS_TYPE":0,"CLASSIFICATION_TYPE":"U","NORAD_CAT_ID":65041,"ELEMENT_SET_NO":999,"REV_AT_EPOCH":3426,"BSTAR":0.0012359343,"MEAN_MOTION_DOT":0.00036425,"MEAN_MOTION_DDOT":0}]
